[
  {
    "OBJECT_NAME": "STARLINK-6254",
    "OBJECT_ID": "23088AU",
    "EPOCH": "2025-11-11T04:19:39.925344",
    "MEAN_MOTION": 15.02541597,
    "ECCENTRICITY": 0.0001226,
    "INCLINATION": 43.006,
    "RA_OF_ASC_NODE": 18.343,
    "ARG_OF_PERICENTER": 263.4569,
    "MEAN_ANOMALY": 96.6134,
    "EPHEMERIS_TYPE": 0,
    "CLASSIFICATION_TYPE": "U",
    "NORAD_CAT_ID": 57090,
    "ELEMENT_SET_NO": 999,
    "REV_AT_EPOCH": 13269,
    "BSTAR": 0.00012365,
    "MEAN_MOTION_DOT": 1.467e-05,
    "MEAN_MOTION_DDOT": 0.0,
    "TLE_LINE1": "1 57090U 23088AU  25315.18032321  .00001467  00000+0  12365-3 0  9995",
    "TLE_LINE2": "2 57090  43.0060  18.3430 0001226 263.4569  96.6134 15.02541597132690",
    "COMMENT": "Grouped by shell and plane from TLE"
  },
  {
    "OBJECT_NAME": "STARLINK-6262",
    "OBJECT_ID": "23088AV",
    "EPOCH": "2025-11-11T05:47:24.370656",
    "MEAN_MOTION": 15.02536656,
    "ECCENTRICITY": 0.0001093,
    "INCLINATION": 43.0031,
    "RA_OF_ASC_NODE": 17.9352,
    "ARG_OF_PERICENTER": 282.921,
    "MEAN_ANOMALY": 77.1511,
    "EPHEMERIS_TYPE": 0,
    "CLASSIFICATION_TYPE": "U",
    "NORAD_CAT_ID": 57091,
    "ELEMENT_SET_NO": 999,
    "REV_AT_EPOCH": 13270,
    "BSTAR": 0.0001457,
    "MEAN_MOTION_DOT": 1.765e-05,
    "MEAN_MOTION_DDOT": 0.0,
    "TLE_LINE1": "1 57091U 23088AV  25315.24125429  .00001765  00000+0  14570-3 0  9996",
    "TLE_LINE2": "2 57091  43.0031  17.9352 0001093 282.9210  77.1511 15.02536656132703",
    "COMMENT": "Grouped by shell and plane from TLE"
  },
  {
    "OBJECT_NAME": "STARLINK-6225",
    "OBJECT_ID": "23088AW",
    "EPOCH": "2025-11-11T05:50:35.939328",
    "MEAN_MOTION": 15.02535696,
    "ECCENTRICITY": 0.0001299,
    "INCLINATION": 43.003,
    "RA_OF_ASC_NODE": 17.9516,
    "ARG_OF_PERICENTER": 278.6422,
    "MEAN_ANOMALY": 81.4273,
    "EPHEMERIS_TYPE": 0,
    "CLASSIFICATION_TYPE": "U",
    "NORAD_CAT_ID": 57092,
    "ELEMENT_SET_NO": 999,
    "REV_AT_EPOCH": 13270,
    "BSTAR": 4.9699e-05,
    "MEAN_MOTION_DOT": 4.68e-06,
    "MEAN_MOTION_DDOT": 0.0,
    "TLE_LINE1": "1 57092U 23088AW  25315.24347152  .00000468  00000+0  49699-4 0  9996",
    "TLE_LINE2": "2 57092  43.0030  17.9516 0001299 278.6422  81.4273 15.02535696132706",
    "COMMENT": "Grouped by shell and plane from TLE"
  },
  {
    "OBJECT_NAME": "STARLINK-6229",
    "OBJECT_ID": "23088AX",
    "EPOCH": "2025-11-11T05:37:48.820512",
    "MEAN_MOTION": 15.02538957,
    "ECCENTRICITY": 0.0001069,
    "INCLINATION": 43.005,
    "RA_OF_ASC_NODE": 17.8847,
    "ARG_OF_PERICENTER": 268.3696,
    "MEAN_ANOMALY": 91.7024,
    "EPHEMERIS_TYPE": 0,
    "CLASSIFICATION_TYPE": "U",
    "NORAD_CAT_ID": 57093,
    "ELEMENT_SET_NO": 999,
    "REV_AT_EPOCH": 13270,
    "BSTAR": 8.9166e-05,
    "MEAN_MOTION_DOT": 1.001e-05,
    "MEAN_MOTION_DDOT": 0.0,
    "TLE_LINE1": "1 57093U 23088AX  25315.23459283  .00001001  00000+0  89166-4 0  9992",
    "TLE_LINE2": "2 57093  43.0050  17.8847 0001069 268.3696  91.7024 15.02538957132700",
    "COMMENT": "Grouped by shell and plane from TLE"
  },
  {
    "OBJECT_NAME": "STARLINK-6235",
    "OBJECT_ID": "23088AY",
    "EPOCH": "2025-11-11T05:36:12.977856",
    "MEAN_MOTION": 15.02537795,
    "ECCENTRICITY": 9.32e-05,
    "INCLINATION": 43.0062,
    "RA_OF_ASC_NODE": 17.8794,
    "ARG_OF_PERICENTER": 265.2559,
    "MEAN_ANOMALY": 94.8177,
    "EPHEMERIS_TYPE": 0,
    "CLASSIFICATION_TYPE": "U",
    "NORAD_CAT_ID": 57094,
    "ELEMENT_SET_NO": 999,
    "REV_AT_EPOCH": 13270,
    "BSTAR": 4.9540000000000003e-05,
    "MEAN_MOTION_DOT": 4.66e-06,
    "MEAN_MOTION_DDOT": 0.0,
    "TLE_LINE1": "1 57094U 23088AY  25315.23348354  .00000466  00000+0  49540-4 0  9995",
    "TLE_LINE2": "2 57094  43.0062  17.8794 0000932 265.2559  94.8177 15.02537795132709",
    "COMMENT": "Grouped by shell and plane from TLE"
  },
  {
    "OBJECT_NAME": "STARLINK-30309",
    "OBJECT_ID": "23122A",
    "EPOCH": "2025-11-11T06:27:25.768800",
    "MEAN_MOTION": 15.02538794,
    "ECCENTRICITY": 0.0001283,
    "INCLINATION": 43.0054,
    "RA_OF_ASC_NODE": 18.4969,
    "ARG_OF_PERICENTER": 267.0223,
    "MEAN_ANOMALY": 93.0472,
    "EPHEMERIS_TYPE": 0,
    "CLASSIFICATION_TYPE": "U",
    "NORAD_CAT_ID": 57632,
    "ELEMENT_SET_NO": 999,
    "REV_AT_EPOCH": 12436,
    "BSTAR": 0.00022216,
    "MEAN_MOTION_DOT": 2.799e-05,
    "MEAN_MOTION_DDOT": 0.0,
    "TLE_LINE1": "1 57632U 23122A   25315.26904825  .00002799  00000+0  22216-3 0  9997",
    "TLE_LINE2": "2 57632  43.0054  18.4969 0001283 267.0223  93.0472 15.02538794124369",
    "COMMENT": "Grouped by shell and plane from TLE"
  },
  {
    "OBJECT_NAME": "STARLINK-30306",
    "OBJECT_ID": "23122B",
    "EPOCH": "2025-11-11T04:46:54.255648",
    "MEAN_MOTION": 15.02545129,
    "ECCENTRICITY": 0.0001093,
    "INCLINATION": 43.0048,
    "RA_OF_ASC_NODE": 18.8361,
    "ARG_OF_PERICENTER": 261.7752,
    "MEAN_ANOMALY": 98.2967,
    "EPHEMERIS_TYPE": 0,
    "CLASSIFICATION_TYPE": "U",
    "NORAD_CAT_ID": 57633,
    "ELEMENT_SET_NO": 999,
    "REV_AT_EPOCH": 12435,
    "BSTAR": 0.00023467,
    "MEAN_MOTION_DOT": 2.968e-05,
    "MEAN_MOTION_DDOT": 0.0,
    "TLE_LINE1": "1 57633U 23122B   25315.19923907  .00002968  00000+0  23467-3 0  9999",
    "TLE_LINE2": "2 57633  43.0048  18.8361 0001093 261.7752  98.2967 15.02545129124355",
    "COMMENT": "Grouped by shell and plane from TLE"
  },
  {
    "OBJECT_NAME": "STARLINK-30329",
    "OBJECT_ID": "23122D",
    "EPOCH": "2025-11-11T04:42:07.191648",
    "MEAN_MOTION": 15.02529649,
    "ECCENTRICITY": 0.0001232,
    "INCLINATION": 43.0052,
    "RA_OF_ASC_NODE": 18.8114,
    "ARG_OF_PERICENTER": 280.1168,
    "MEAN_ANOMALY": 79.9536,
    "EPHEMERIS_TYPE": 0,
    "CLASSIFICATION_TYPE": "U",
    "NORAD_CAT_ID": 57635,
    "ELEMENT_SET_NO": 999,
    "REV_AT_EPOCH": 12435,
    "BSTAR": 4.4878000000000006e-05,
    "MEAN_MOTION_DOT": 4.03e-06,
    "MEAN_MOTION_DDOT": 0.0,
    "TLE_LINE1": "1 57635U 23122D   25315.19591657  .00000403  00000+0  44878-4 0  9996",
    "TLE_LINE2": "2 57635  43.0052  18.8114 0001232 280.1168  79.9536 15.02529649124356",
    "COMMENT": "Grouped by shell and plane from TLE"
  },
  {
    "OBJECT_NAME": "STARLINK-30330",
    "OBJECT_ID": "23122E",
    "EPOCH": "2025-11-11T06:13:02.673408",
    "MEAN_MOTION": 15.02538092,
    "ECCENTRICITY": 0.0001077,
    "INCLINATION": 43.0036,
    "RA_OF_ASC_NODE": 18.4232,
    "ARG_OF_PERICENTER": 259.1917,
    "MEAN_ANOMALY": 100.8805,
    "EPHEMERIS_TYPE": 0,
    "CLASSIFICATION_TYPE": "U",
    "NORAD_CAT_ID": 57636,
    "ELEMENT_SET_NO": 999,
    "REV_AT_EPOCH": 12436,
    "BSTAR": 0.0,
    "MEAN_MOTION_DOT": -3.87e-06,
    "MEAN_MOTION_DDOT": 0.0,
    "TLE_LINE1": "1 57636U 23122E   25315.25905872 -.00000387  00000+0 -13615-4 0  9990",
    "TLE_LINE2": "2 57636  43.0036  18.4232 0001077 259.1917 100.8805 15.02538092124367",
    "COMMENT": "Grouped by shell and plane from TLE"
  },
  {
    "OBJECT_NAME": "STARLINK-30311",
    "OBJECT_ID": "23122F",
    "EPOCH": "2025-11-11T06:03:27.097344",
    "MEAN_MOTION": 15.02547674,
    "ECCENTRICITY": 0.0001963,
    "INCLINATION": 43.0047,
    "RA_OF_ASC_NODE": 18.3716,
    "ARG_OF_PERICENTER": 284.558,
    "MEAN_ANOMALY": 75.5045,
    "EPHEMERIS_TYPE": 0,
    "CLASSIFICATION_TYPE": "U",
    "NORAD_CAT_ID": 57637,
    "ELEMENT_SET_NO": 999,
    "REV_AT_EPOCH": 12436,
    "BSTAR": 0.00012728000000000001,
    "MEAN_MOTION_DOT": 1.516e-05,
    "MEAN_MOTION_DDOT": 0.0,
    "TLE_LINE1": "1 57637U 23122F   25315.25239696  .00001516  00000+0  12728-3 0  9991",
    "TLE_LINE2": "2 57637  43.0047  18.3716 0001963 284.5580  75.5045 15.02547674124368",
    "COMMENT": "Grouped by shell and plane from TLE"
  },
  {
    "OBJECT_NAME": "STARLINK-30326",
    "OBJECT_ID": "23122H",
    "EPOCH": "2025-11-11T03:34:58.589472",
    "MEAN_MOTION": 15.02543275,
    "ECCENTRICITY": 0.0001236,
    "INCLINATION": 43.0049,
    "RA_OF_ASC_NODE": 18.4513,
    "ARG_OF_PERICENTER": 274.3319,
    "MEAN_ANOMALY": 85.7382,
    "EPHEMERIS_TYPE": 0,
    "CLASSIFICATION_TYPE": "U",
    "NORAD_CAT_ID": 57639,
    "ELEMENT_SET_NO": 999,
    "REV_AT_EPOCH": 12435,
    "BSTAR": 0.00017407000000000002,
    "MEAN_MOTION_DOT": 2.149e-05,
    "MEAN_MOTION_DDOT": 0.0,
    "TLE_LINE1": "1 57639U 23122H   25315.14928923  .00002149  00000+0  17407-3 0  9991",
    "TLE_LINE2": "2 57639  43.0049  18.4513 0001236 274.3319  85.7382 15.02543275124357",
    "COMMENT": "Grouped by shell and plane from TLE"
  },
  {
    "OBJECT_NAME": "STARLINK-30324",
    "OBJECT_ID": "23122J",
    "EPOCH": "2025-11-11T04:18:08.380224",
    "MEAN_MOTION": 15.02534962,
    "ECCENTRICITY": 0.0001222,
    "INCLINATION": 43.0019,
    "RA_OF_ASC_NODE": 18.6827,
    "ARG_OF_PERICENTER": 267.351,
    "MEAN_ANOMALY": 92.7192,
    "EPHEMERIS_TYPE": 0,
    "CLASSIFICATION_TYPE": "U",
    "NORAD_CAT_ID": 57640,
    "ELEMENT_SET_NO": 999,
    "REV_AT_EPOCH": 12435,
    "BSTAR": 0.0,
    "MEAN_MOTION_DOT": -2.52e-06,
    "MEAN_MOTION_DDOT": 0.0,
    "TLE_LINE1": "1 57640U 23122J   25315.17926366 -.00000252  00000+0 -35863-5 0  9998",
    "TLE_LINE2": "2 57640  43.0019  18.6827 0001222 267.3510  92.7192 15.02534962124356",
    "COMMENT": "Grouped by shell and plane from TLE"
  },
  {
    "OBJECT_NAME": "STARLINK-30312",
    "OBJECT_ID": "23122K",
    "EPOCH": "2025-11-11T05:49:03.906048",
    "MEAN_MOTION": 15.02545704,
    "ECCENTRICITY": 0.0001426,
    "INCLINATION": 43.0047,
    "RA_OF_ASC_NODE": 18.3011,
    "ARG_OF_PERICENTER": 271.0638,
    "MEAN_ANOMALY": 89.0041,
    "EPHEMERIS_TYPE": 0,
    "CLASSIFICATION_TYPE": "U",
    "NORAD_CAT_ID": 57641,
    "ELEMENT_SET_NO": 999,
    "REV_AT_EPOCH": 12436,
    "BSTAR": 0.00020772,
    "MEAN_MOTION_DOT": 2.604e-05,
    "MEAN_MOTION_DDOT": 0.0,
    "TLE_LINE1": "1 57641U 23122K   25315.24240632  .00002604  00000+0  20772-3 0  9994",
    "TLE_LINE2": "2 57641  43.0047  18.3011 0001426 271.0638  89.0041 15.02545704124368",
    "COMMENT": "Grouped by shell and plane from TLE"
  }
]